[Satellite]
VERSION=1.1
NAME=GSAT0205 (PRN E24)
NICKNAME=GSAT0205 (PRN E24)
TLE1=1 40889U 15045A   20155.85222708 -.00000052  00000-0  00000+0 0  9998
TLE2=2 40889  56.1633 282.4751 0003216  26.2764 333.7126  1.70475414 29439
STATUS=0
